{"type":"FeatureCollection", "features": [
{"type":"Feature","geometry":{"type":"Polygon","coordinates":[[[127.02214829071995,37.6997208220174],[127.00966649164835,37.69669983589131],[127.00866351690318,37.68444952502072],[126.99292441760487,37.67882173546399],[126.91227986298702,37.64431535871456],[126.89964366188751,37.58981689102711],[126.89946874560736,37.58978720878946],[126.89808208937289,37.58953879813458],[126.89641421486809,37.588738259711654],[126.89144413732697,37.58846540719247],[126.88760860436412,37.58866702146901],[126.88546703972384,37.59110491957286],[126.88526186543075,37.59388967221363],[126.88004451285705,37.5890663285431],[126.87754227154741,37.58624748300569],[126.87674571225392,37.58463725885526],[126.87626048539161,37.57818523477585],[126.87519538328127,37.57827448072187],[126.87391525114549,37.57828069985728],[126.87060053228214,37.57800846810045],[126.86341573774328,37.57686871349725],[126.85929409339185,37.575240513397276],[126.85576628482794,37.57422147512045],[126.85483415447614,37.574037312382295],[126.85362850937015,37.57379873088045],[126.85363177737607,37.571790567151005],[126.83192748566819,37.585725326435295],[126.82005393750893,37.5924035197868],[126.802581401644,37.60503274995107],[126.80056961444633,37.58784169794299],[126.7934410807416,37.58451960591439],[126.79373176951123,37.583038596291985],[126.79369544515194,37.581593857630565],[126.79220200381857,37.5801772405944],[126.79163003742806,37.581216862283014],[126.7913270080946,37.58121970237116],[126.79100913303807,37.58078187836703],[126.78868676090737,37.57704059104332],[126.78755871285766,37.57556340204046],[126.78240829166033,37.5736062075181],[126.78131574903067,37.570175077752126],[126.78136064212848,37.56892504158715],[126.780462044157,37.56795452271785],[126.77699234828594,37.56637152977038],[126.77710164081506,37.56371945642372],[126.77783305751673,37.56077630961268],[126.77793607518097,37.56015482302396],[126.77734811270817,37.5603158857592],[126.77610891003212,37.561863505282396],[126.77575852431217,37.56194139249744],[126.77563557117591,37.561897513628296],[126.77553479952697,37.56182834038407],[126.77069902542723,37.55720930930191],[126.7645592210191,37.55544387853895],[126.76459278007194,37.55517815473323],[126.76620435741586,37.55424237519548],[126.7663653536772,37.553763487360555],[126.76737004162123,37.553131581222026],[126.76746505581566,37.55195074000424],[126.77149432518162,37.54835628290978],[126.77790625395504,37.546668259247326],[126.7839471475717,37.546008305649835],[126.78548186233796,37.54600436556127],[126.78694625411694,37.54598338536884],[126.79056480994473,37.54392242081893],[126.79301738451552,37.54159404732296],[126.79380273645175,37.53999448762703],[126.79396340224895,37.53736032178522],[126.7944237423888,37.535832650042664],[126.7990880615083,37.53756479035003],[126.79946224174908,37.53772535694689],[126.79947901203467,37.53776745002211],[126.79945859083507,37.53891167430233],[126.79942665315448,37.53901917911254],[126.79924277607107,37.539287755507615],[126.7990090366629,37.5393588668069],[126.79932937655255,37.54064181081303],[126.80029809781746,37.54167707243086],[126.80168082954788,37.54261025187685],[126.80184991705597,37.54271555691145],[126.80719326763626,37.543716129022975],[126.81233421013545,37.54073667807064],[126.81305060383602,37.54065813879081],[126.81351313334154,37.540632703133106],[126.81631233356991,37.5405514089782],[126.82211888581962,37.540677284983985],[126.82193281140653,37.5350496784185],[126.82473543068012,37.53059990326801],[126.82555830981273,37.529846550406546],[126.82706967782931,37.52970830057251],[126.82821380097458,37.52902893882255],[126.82842768605695,37.52670238618308],[126.82814881954218,37.52583256992904],[126.82612672008628,37.52429582830689],[126.82552098733707,37.519876052259846],[126.82459184696307,37.518045752754375],[126.82425573669478,37.514467565938325],[126.82418775301156,37.51052493327467],[126.82222289281354,37.50768732432088],[126.82156435952568,37.502156422313114],[126.81963994107753,37.49921047109312],[126.81301232122506,37.496400259045714],[126.81438948470152,37.49355712942604],[126.81457485743833,37.4931929354102],[126.82004518312588,37.49078820176201],[126.82078537552223,37.490533111141644],[126.82304057093975,37.48838063081149],[126.82326789220222,37.487907644447304],[126.82322519568885,37.487490162181594],[126.82256900653041,37.486984043563965],[126.82129203103531,37.48617740071139],[126.8199849316428,37.481692635812315],[126.81936728788001,37.47986309502434],[126.81899730238244,37.47916199614427],[126.81825621927429,37.478163828964824],[126.81732392065949,37.478139295676314],[126.81721035612148,37.478135181855585],[126.81641141908979,37.477536748815474],[126.81529553572993,37.47636211907153],[126.81522179414826,37.476251063198596],[126.81496487102987,37.47586011888277],[126.81472979756464,37.475057306435204],[126.81465604938846,37.47476019094166],[126.81766855225743,37.473238400442405],[126.8195759381957,37.47635542376256],[126.84536055354526,37.47381246555105],[126.8717971958008,37.48499743368912],[126.90939564142113,37.43386044896999],[126.99676862985268,37.461873352884574],[127.00273482189448,37.46712461108707],[127.0044696722443,37.46407327656836],[127.00923267412264,37.45722091033481],[127.0107251186711,37.45577244670041],[127.02634678296988,37.458104359241986],[127.06961542955781,37.430611692111725],[127.07376019338288,37.437789433842276],[127.07224980537977,37.442199811541435],[127.07601057612212,37.44213893609793],[127.07908335144711,37.44129874337731],[127.08017160102241,37.441051093956524],[127.08816128515241,37.44538498355397],[127.08832676671251,37.44862736036078],[127.08832682104673,37.44862776075761],[127.08843214262606,37.44899484298624],[127.08882127538375,37.44974941955953],[127.09354036220854,37.455888055203964],[127.09377352285104,37.45607736437658],[127.09522278311739,37.45639422742016],[127.09930610906709,37.45667755614937],[127.10434135861443,37.46217434553484],[127.14352658956736,37.473930418522116],[127.16139030513257,37.5002010498375],[127.15082434872058,37.50406156817608],[127.14550250136601,37.50330570568455],[127.14113191237908,37.50546377662881],[127.14151309866016,37.50670219734203],[127.14032052088919,37.508273591129395],[127.14001384551528,37.50852453676255],[127.13996581242264,37.50864088493049],[127.14023773642688,37.50985352338447],[127.14210518808247,37.51466010401819],[127.1433741159653,37.51557760277298],[127.14460355182592,37.515606249070395],[127.14475438292835,37.515645484717986],[127.14485430106286,37.51567802502981],[127.14543916612115,37.51606474208284],[127.14544427334503,37.51633278212625],[127.14543404002671,37.51642852537821],[127.14509193634692,37.51683494851859],[127.14480065945018,37.51938973774546],[127.14779743367326,37.52214947334571],[127.14947629508237,37.52502054146565],[127.15316377616772,37.529108804926516],[127.15356680162624,37.533665193070505],[127.15671195122711,37.53757774554748],[127.15958338038794,37.54102822393515],[127.16009589899915,37.54151453079874],[127.1631627309092,37.54499101097656],[127.1651681782903,37.544631798899346],[127.17608601659725,37.54561946546925],[127.17933128170148,37.54656742148427],[127.18169282664165,37.546444749492956],[127.18353917154177,37.54517039495601],[127.18279599113094,37.54638983933193],[127.18265679525105,37.54752440129038],[127.182926745995,37.55023535046519],[127.18170384487837,37.552507995663994],[127.18142169421999,37.552757324685345],[127.1813403273481,37.55296496478539],[127.18135146515526,37.553258048765485],[127.18165662833978,37.557998302305066],[127.18199542158489,37.56099244596784],[127.18118573247567,37.5630169666324],[127.18099458554735,37.56332274641403],[127.1801941808996,37.56458787465877],[127.17946467033734,37.566583016887506],[127.17781926600982,37.57205770863517],[127.17568308790581,37.57489869852943],[127.17510636726472,37.58026661233748],[127.17025143915063,37.579016497229034],[127.16674716243453,37.578975666143656],[127.1489495440468,37.56843431854424],[127.10492928845024,37.556421585556336],[127.11804701133192,37.60460229805868],[127.11669806436957,37.60884925145508],[127.11687784452862,37.609530700257416],[127.1172872225345,37.611180500418115],[127.11737381655063,37.61224525812902],[127.11708589521979,37.61396022396543],[127.11679649663584,37.614954676556906],[127.11670352036289,37.61571891606276],[127.11667194632817,37.61601542319483],[127.11687861029367,37.61632493344969],[127.11725242287622,37.61674187052708],[127.11619333227809,37.61894778380488],[127.10769224246286,37.64496664676661],[127.10657637866768,37.64537730972521],[127.10386737257883,37.64548852460528],[127.09890806335117,37.6440343984249],[127.09456996976148,37.644570600805835],[127.09120691221572,37.659334556715166],[127.09414211770347,37.66329882532109],[127.09541063101342,37.663889644590746],[127.0946800144686,37.66492127931861],[127.09458063193003,37.666172300680316],[127.09497929397519,37.66760002717652],[127.0962373655161,37.66882941453695],[127.09644725778618,37.66968910695227],[127.0939627740268,37.675617232268024],[127.09218959069077,37.67803010766824],[127.09194153856279,37.67869251579676],[127.09194656333966,37.67919029908044],[127.09642311415676,37.685637441138354],[127.09642514740469,37.68626418153678],[127.09611844498184,37.68777746180145],[127.09599596058983,37.68907104690658],[127.09509714278617,37.68938485003124],[127.09303672225575,37.689966466063815],[127.09055188620752,37.68957025151863],[127.08517719556258,37.69038984858866],[127.08110478631578,37.696137457947785],[127.05180416049991,37.68706675968194],[127.0324142885382,37.691839038874726],[127.02214829071995,37.6997208220174]]]},"properties":{"name":"서울특별시","base_year":"2018","name_eng":"Seoul","code":"11"}},
{"type":"Feature","geometry":{"type":"Polygon","coordinates":[[[128.82068705535576,35.097022951296395],[129.123807196087,35.099214472483936],[129.28062474259482,35.3265178841147],[129.29918634208406,35.31835604984524],[129.30371076717668,35.32533749155518],[129.3034827329927,35.329730853721244],[129.30449247368722,35.32979220135435],[129.30522881266617,35.32459153572192],[129.30575195555326,35.32468130276451],[129.3048892115666,35.32968282851414],[129.304828765345,35.32988602371056],[129.30446406184166,35.3299943986522],[129.3041395879338,35.33016233904973],[129.3027069221121,35.332302112791595],[129.30231746721245,35.33404257592507],[129.29993773119435,35.3359683141554],[129.29188925437597,35.33681723507198],[129.27966242511414,35.34137064874476],[129.28223140413024,35.36532477229855],[129.2633379886873,35.38564393465988],[129.218536288104,35.3789547906518],[129.21156369681185,35.380778759915515],[129.20509022863132,35.3843410790956],[129.20366431891296,35.38629023352871],[129.20257735517697,35.387238459852824],[129.20116989153746,35.38778167785071],[128.79852130703128,35.15810280357691],[128.79709210732554,35.158997041432514],[128.8249484481423,35.13064375477036],[128.82670048532245,35.12859002547415],[128.83928036555477,35.115074958035585],[128.83958597765226,35.11513143879709],[128.82068705535576,35.097022951296395]]]},"properties":{"name":"부산광역시","base_year":"2018","name_eng":"Busan","code":"21"}},
{"type":"Feature","geometry":{"type":"Polygon","coordinates":[[[128.52985121643272,35.6830153339775],[128.75979529418998,35.86607494532021],[128.6186696544509,36.006411645288516],[128.38346927250018,35.760086848407774],[128.37174762478122,35.61088094214918],[128.52985121643272,35.6830153339775]]]},"properties":{"name":"대구광역시","base_year":"2018","name_eng":"Daegu","code":"22"}},
{"type":"Feature","geometry":{"type":"Polygon","coordinates":[[[126.72428476537448,37.59329356807687],[126.61568941463811,37.60545588661631],[126.7543615878896,37.417510129612296],[126.76032074964638,37.53570805052545],[126.76071368959008,37.53791414870459],[126.76232161721708,37.53950283736712],[126.76333171263978,37.5462872503289],[126.765278431175,37.55053369345125],[126.76618290317018,37.55355606538204],[126.76620435742983,37.55424237567195],[126.77069902612243,37.55720930953876],[126.773192267779,37.55928642731475],[126.7755348002174,37.56182834077666],[126.77563557219489,37.56189751343667],[126.7757585254001,37.56194139271994],[126.77610890960679,37.56186350659851],[126.77734811247561,37.560315886926],[126.77783305736394,37.56077630904595],[126.77710164043533,37.563719456800065],[126.77699234778481,37.56637153000603],[126.78046204517912,37.56795452393191],[126.78240829130041,37.573606208823186],[126.78755871239225,37.57556340235294],[126.78868676211583,37.577040590365975],[126.79100913417412,37.58078187973132],[126.79220200385072,37.58017723986947],[126.79369544517627,37.581593858784835],[126.7870480367187,37.58557952634535],[126.76766736670146,37.58823160197767],[126.74971348853138,37.58146122337824],[126.74432404984321,37.59249537050702],[126.72546216994375,37.59187463209949],[126.72428476537448,37.59329356807687]]]},"properties":{"name":"인천광역시","base_year":"2018","name_eng":"Incheon","code":"23"}},
{"type":"Feature","geometry":{"type":"Polygon","coordinates":[[[126.76338400861832,35.25651922348385],[126.76028936557978,35.258703976504925],[126.73709590224453,35.25187382471913],[126.73007548620383,35.243768219286615],[126.72990073561346,35.24330151572366],[126.73013819945993,35.241793865711436],[126.73036369150395,35.24078459328367],[126.7304116496807,35.24066146896055],[126.7290904317032,35.237301016048704],[126.72791660137456,35.23639166846933],[126.72790496913451,35.236382775822136],[126.72698737388639,35.23651265971755],[126.72518563488872,35.23424902226716],[126.72417810694965,35.23236460834873],[126.72358689840745,35.23066957721116],[126.72328527933071,35.228718889168135],[126.71847734535297,35.22179869111427],[126.72072176985037,35.21883004785182],[126.72021677064565,35.21602232755958],[126.71773631758755,35.21241581659355],[126.7025561348751,35.20756445054121],[126.68712233806596,35.21521282637885],[126.67771777652672,35.193939605113556],[126.67762999979232,35.193144068311426],[126.67726202163134,35.19149741831499],[126.67711746793583,35.19104678788776],[126.67635428646722,35.19080926084019],[126.67597292825191,35.1907181102785],[126.67443340919435,35.19118026593836],[126.67206101870201,35.19425713807944],[126.66811251213946,35.19264194276339],[126.65320393192,35.192518027362354],[126.6704295519588,35.169517507835174],[126.66428419112874,35.16844007351925],[126.6628886363507,35.167480472774926],[126.65838206596109,35.166825585593486],[126.6574520932439,35.16667661471915],[126.65707845560893,35.16661598462132],[126.65489171919215,35.165164636593396],[126.65422288247211,35.16455177949061],[126.65413337108113,35.16442800579271],[126.65397485734994,35.164197279021906],[126.65366265887032,35.161271230068394],[126.65434271626461,35.16012170820199],[126.65462547013756,35.15835278260901],[126.6535568510576,35.15301076629449],[126.64910571626797,35.14717518442491],[126.64631758492469,35.14679904303093],[126.64554520503052,35.146664819579726],[126.64497761186632,35.14655554891923],[126.64730694103928,35.144227176834875],[126.64756409862399,35.14403568851385],[126.64790090035856,35.14398385244854],[126.64862539599702,35.1440052603011],[126.6505265416425,35.14436667880529],[126.6533160563956,35.14395995828655],[126.65282701163609,35.140913112893635],[126.65417672708219,35.137352421023415],[126.6546520964241,35.13712070172778],[126.65488626753367,35.136803365711444],[126.65460005852245,35.13398877824751],[126.65454244607302,35.13350455969227],[126.65407388518825,35.13108872004151],[126.65312821677372,35.12654698086451],[126.65172341762218,35.124658683680465],[126.65172349720663,35.12050978737507],[126.65709319989149,35.11327826460087],[126.67632920303733,35.10488692261061],[126.68988305030719,35.111223005745416],[126.69597436049953,35.10748618237036],[126.69839624095992,35.10798123748306],[126.70006342295304,35.10944024741817],[126.70040499091138,35.110278789578345],[126.70162842160461,35.1123245224471],[126.70231616605122,35.112623109952416],[126.70268213621186,35.11270639636229],[126.70540377599549,35.11301431308454],[126.70552233571966,35.11284448177164],[126.70654236689741,35.1116853486349],[126.7085976210335,35.109553968443066],[126.71273331741655,35.10991442895681],[126.71471802877983,35.11054432213084],[126.71548859724247,35.11073964388482],[126.71910849181039,35.108566562277204],[126.73643743368233,35.10822710572995],[126.7618723504983,35.0910330546991],[126.76564572978994,35.08272552530139],[126.76568384551761,35.08067457457037],[126.76522116552822,35.07963597864198],[126.76480207402558,35.078754648532794],[126.76697633822283,35.07546381655106],[126.7713463632994,35.07018331302879],[126.76921070504542,35.053971384545044],[126.78158701480282,35.05384459011791],[126.79489572269061,35.06112285767143],[126.80357545792275,35.052421102022784],[126.80731450050246,35.05102029946565],[126.8113516216372,35.05307688168392],[126.81441719900334,35.053373463978794],[126.81524678367458,35.053321783400534],[126.8180847105238,35.052689102208305],[126.81880921697622,35.053246075078825],[126.82052979118883,35.05783717703489],[126.82079999714998,35.058571347134055],[126.82185927241012,35.0599482174928],[126.82199471106739,35.060043620263485],[126.82234898688108,35.060260615379484],[126.82595704707605,35.0619711593161],[126.8272082676022,35.062315491020094],[126.8359650974385,35.06385682955157],[126.83795408176339,35.0658699992327],[126.84373724239174,35.06534261204296],[126.84391226411806,35.06536622167223],[126.84397733407627,35.06538123279602],[126.84408498066311,35.06542629652856],[126.84562022589351,35.06682779510692],[126.84586780022406,35.06707373492617],[126.84587031576189,35.06764370928334],[126.84587044451949,35.06793397529836],[126.84576249993181,35.06830917512763],[126.84818408399882,35.07194785985293],[126.84843556595695,35.07222225359358],[126.85560924987976,35.078359530512316],[126.86113104568832,35.07894193557025],[126.86536703167815,35.07534622568973],[126.87167670217929,35.07433782746914],[126.88540282371176,35.08159026922203],[126.8951053729446,35.08071413936845],[126.89706758554722,35.0811279388952],[126.89762255929675,35.08123404243812],[126.89989297697866,35.08071485785299],[126.90580723121033,35.082048202836006],[126.91071144801826,35.08743128505121],[126.9134301781995,35.08947135949227],[126.91669987391045,35.09124697830724],[126.92057624737592,35.0916862228704],[126.92466935390635,35.08799582588538],[126.9250073644195,35.08566854367162],[126.92609306883915,35.082392195695455],[126.9359950082031,35.07448169387839],[126.95188207956437,35.073156611218195],[126.95860101001881,35.08258802214923],[126.9606483759846,35.085112695105714],[126.96243030374646,35.08690376171351],[126.9628064223484,35.08720301879109],[126.96651299863164,35.089385589670606],[126.97216858034811,35.090500975874335],[126.97961505440837,35.09187374418774],[126.98765179944373,35.093952707594916],[126.98895069285446,35.09498758842266],[126.98882687662828,35.096703122596935],[126.98872572407753,35.0970292936563],[126.98779258733389,35.100495213251904],[126.98635174164254,35.10594533142953],[126.9892053321509,35.10987742473747],[126.99180191055528,35.11114632477806],[126.9943989710209,35.11175083601131],[126.99779696259195,35.1129938818857],[126.99993185459834,35.11405020528106],[126.99895227316743,35.11531392332705],[126.99868658844669,35.11575558864404],[127.00458699268198,35.12176117309602],[127.0118320829161,35.12781621354353],[126.90546612240009,35.25824230017537],[126.79537691487552,35.2197789341343],[126.77487566196645,35.230478561975204],[126.76030969841278,35.23397312216199],[126.7570549203747,35.233730552884275],[126.75570809317908,35.23409399927271],[126.75559342979994,35.23414925260463],[126.75525910817434,35.23436123672651],[126.75384981124304,35.23708674472569],[126.75522130271885,35.241133311905294],[126.75676115288262,35.24364356737472],[126.75936472947124,35.24565752148093],[126.76062709787833,35.247150210018276],[126.76081646086206,35.24744042442319],[126.76278829620898,35.25244140181707],[126.76313281049664,35.252700223285125],[126.76339995654384,35.252994255986806],[126.76343464336615,35.25303660990902],[126.7634401501472,35.253043335706955],[126.76370515071653,35.25336749066642],[126.76338400861832,35.25651922348385]]]},"properties":{"name":"광주광역시","base_year":"2018","name_eng":"Gwangju","code":"24"}},
{"type":"Feature","geometry":{"type":"Polygon","coordinates":[[[127.39892240776403,36.48910466358873],[127.39612055465636,36.49172147098631],[127.38692959659006,36.498638274062316],[127.38385508731686,36.50023063151507],[127.38033654963414,36.49953929857418],[127.36813736887565,36.48822844760901],[127.3633362088667,36.489664701679864],[127.36015125592995,36.48852714735388],[127.35905130490889,36.485232612880715],[127.35885686031396,36.48256486223106],[127.36388388975692,36.47522103514768],[127.3586213693065,36.45589556810889],[127.34100540419718,36.43096912216175],[127.34047235435023,36.43050956204656],[127.33981833860217,36.42996987623114],[127.33757265707403,36.428348789693906],[127.3327277414545,36.42650449548535],[127.32629846284372,36.42209458480639],[127.31094891943587,36.42468928324198],[127.30350161699407,36.42467580367048],[127.2964179958815,36.423208396443925],[127.29424987903545,36.42222404665329],[127.29458383373094,36.42137978436702],[127.29517858528527,36.42085507121558],[127.29531167795437,36.419770390122764],[127.29108586950058,36.41615197788055],[127.28681836162527,36.4153091926021],[127.28520297313109,36.41527123645186],[127.28336489000115,36.41499984255525],[127.28212371240241,36.41461202987144],[127.2822967455079,36.411989352684074],[127.28179412637252,36.40900575684431],[127.281038665463,36.40481654971371],[127.28060742185568,36.40304734300388],[127.27877842116796,36.39868883621423],[127.27848244938484,36.39675968001417],[127.27859285063708,36.395397142436956],[127.27865392237614,36.394960367447624],[127.27885703157762,36.39353066998129],[127.27916632901648,36.39145168558261],[127.27805747405107,36.38671531284775],[127.27858405596344,36.38282081164403],[127.27900531862161,36.38205779711448],[127.27888126512008,36.38040329254067],[127.27885434886137,36.37991026352795],[127.27903181198056,36.37954256185162],[127.28030476803465,36.37869626844319],[127.28071997322428,36.37682002463186],[127.2810369295096,36.37486360634636],[127.27938195757463,36.37132740732203],[127.27743205282358,36.368655177597226],[127.27767542947034,36.36529030761325],[127.2723497921772,36.36262139473216],[127.27072155292579,36.36117672355801],[127.27056915722235,36.36085771038103],[127.27083576957047,36.358700672204215],[127.27109179379967,36.357422632104985],[127.27241278365734,36.354123063017866],[127.27911807288851,36.34482237145318],[127.25877186517843,36.27605058162887],[127.2938203477125,36.22311632271662],[127.30638978380922,36.2261599801432],[127.30747387914533,36.225470055197576],[127.30822579335732,36.22500457425821],[127.31134591917659,36.22328371728545],[127.31236919600593,36.22287103982069],[127.31430507660718,36.22211432990168],[127.31526122268697,36.22128808619496],[127.31564078296174,36.22081537076476],[127.34038344165101,36.18889128362428],[127.3529676934404,36.21183905741256],[127.3548191298198,36.212733957378056],[127.35943469273755,36.213928898441026],[127.36419690266958,36.218901293333865],[127.3603556251084,36.225486765620346],[127.38641214684309,36.25067221108963],[127.44369439476876,36.19475334533391],[127.46730233080308,36.2223468147753],[127.47785717154933,36.229668789672466],[127.48354574777981,36.2303568480251],[127.48438537663415,36.231041704085676],[127.48529958329922,36.2319473579764],[127.48651400994426,36.23253216318168],[127.48729053243672,36.23285591519256],[127.4872906648532,36.23285597020173],[127.48776689620487,36.23268702885814],[127.48846943725142,36.23253356216748],[127.48996984762461,36.23348207640233],[127.48938731797077,36.235731497076934],[127.48997111103058,36.23709553191098],[127.49257720208406,36.237953950762325],[127.49231822918452,36.24437958832433],[127.48604835538839,36.261248473722304],[127.50134153269573,36.34006989552362],[127.53961815265357,36.420614162296474],[127.39993281011039,36.45890610866205],[127.39892240776403,36.48910466358873]]]},"properties":{"name":"대전광역시","base_year":"2018","name_eng":"Daejeon","code":"25"}},
{"type":"Feature","geometry":{"type":"Polygon","coordinates":[[[129.1594845651039,35.71585939560544],[129.1562760996848,35.719763757681825],[129.15483307376255,35.720942258999905],[129.15286884864804,35.72196308456141],[129.14983673365612,35.723313128211636],[129.14872472641372,35.72347616829712],[129.14721446216527,35.72466506363602],[129.14130938253984,35.72410332540877],[129.1409884215687,35.723851532290915],[129.13839905640714,35.72178835376144],[129.13753468330995,35.72069933049802],[129.13949889002893,35.718262810979475],[129.13951493697124,35.718242951830916],[129.13949625795783,35.71822920218513],[129.1379297684886,35.71708156272362],[129.13656950017824,35.71548237870831],[129.13610887286427,35.71442010599211],[129.13581095476124,35.71363258398288],[129.13416347532143,35.71210914595203],[129.08306798446236,35.697643590464104],[129.0804648831616,35.69590486751267],[129.0772210749806,35.692935622257515],[129.07434982200988,35.688440542256615],[129.07397364139308,35.68777585777528],[129.07397726533355,35.68756868796423],[129.07407142279374,35.68731250700543],[129.07410833666117,35.6871653062413],[129.07411517457572,35.68704270133924],[129.0739463555562,35.68678780574217],[129.0726986931749,35.68528250986205],[129.07188635837062,35.68435373181044],[129.06987683172048,35.68237223561092],[129.06980194351735,35.68143653739298],[129.06999808199996,35.6799832616035],[129.07070530782053,35.67863566004716],[129.07302827497253,35.67737938190691],[129.06809482662285,35.6731906419433],[129.06715348873502,35.67134646884214],[129.06903957065512,35.66905221262333],[129.06789322995712,35.65879849430355],[129.0797643805044,35.64911313167956],[129.08136279362213,35.64516367511372],[129.08131080274657,35.6449675992875],[129.0810321447454,35.643919547971926],[129.08085479958118,35.64325313510232],[129.07554602234902,35.64035588891017],[129.06930226585288,35.64541351207549],[129.05768204978196,35.64825624420309],[129.05480369485463,35.648495442324226],[129.05204644516738,35.649059995924986],[129.0505840406497,35.64948010661234],[129.04850061550624,35.6501833476791],[129.04690108073643,35.65051760718396],[129.00273979112376,35.620258455996336],[129.0057409150693,35.619052773439996],[129.00646749278326,35.6185002828895],[129.00791724196586,35.61619166035363],[129.02301841721209,35.61343942905364],[129.0188954340309,35.58381993324913],[128.977905477539,35.56344699898251],[128.99834893116298,35.541720700163395],[128.9989611774235,35.540001489813626],[128.99883355252356,35.53854209221408],[128.99592161505709,35.53524774828044],[128.99592133167255,35.534312081897276],[128.99620712682236,35.5322576962054],[128.9960786171526,35.53202279062317],[128.99551012871189,35.531337632412416],[128.99466344516517,35.530431361860344],[128.99458594550933,35.528130796397924],[128.99539238610024,35.52782439286851],[129.0042728102883,35.529179138571244],[129.00738067885985,35.52912509229071],[129.00759705761772,35.52910888003713],[129.00955042622093,35.528319708246606],[129.00969338962312,35.52806099472996],[129.00903249803105,35.52399180859306],[129.01295538344502,35.5231407607471],[129.02033385703913,35.52412914764238],[129.02415259882693,35.52579011790126],[129.02734328624805,35.52711438993508],[129.0300483365398,35.526242470900485],[129.03245577446503,35.525679973346705],[129.05582321252035,35.53226752736467],[129.05211296795795,35.52440149982673],[129.0510564074406,35.519840096800294],[129.0511586169017,35.519092109800596],[129.0519149207331,35.51705936200099],[129.0526303684836,35.514472462067815],[129.10672323714599,35.49513585389269],[129.14315226372014,35.44565411194185],[129.15204442216654,35.44186558378529],[129.15245084657718,35.44128725582164],[129.1527695585285,35.440826483061365],[129.15344840671298,35.44016696521755],[129.15400393188025,35.439723918048855],[129.1550916178396,35.43887417889114],[129.15847121214134,35.43649811408382],[129.1680499357068,35.43179254176619],[129.19051313762083,35.43508854244139],[129.21888378474424,35.406971482090995],[129.21380836135057,35.40208143392368],[129.2105695767337,35.39971436754065],[129.21027326112883,35.3996667170367],[129.20968614241315,35.399565914760096],[129.20941373784325,35.39951878098948],[129.20891850351603,35.399432740845114],[129.20281549945778,35.392610652608994],[129.2020331470749,35.39116040812903],[129.20182775667703,35.38968230812557],[129.20116989188136,35.38778167660958],[129.20509022853471,35.38434107848225],[129.21156369679832,35.380778759572166],[129.21853628725367,35.37895479023848],[129.26333798889434,35.385643933495416],[129.27966242529786,35.341370647560346],[129.29188925456612,35.33681723389628],[129.29993773103703,35.335968313546566],[129.3023174672313,35.33404257555749],[129.30270692202217,35.33230211149327],[129.3041395871511,35.33016233790524],[129.30446406087106,35.32999439804494],[129.30482876461238,35.3298860230293],[129.30483286475882,35.33010208030112],[129.30487889085916,35.33017466519432],[129.30511678013295,35.330314862082176],[129.3062166127741,35.3306885761332],[129.3080019797496,35.330801718200696],[129.31157942092685,35.32950053043724],[129.31286098507132,35.330560701000344],[129.33359684313095,35.35437093316663],[129.4634355435854,35.60461180100694],[129.35355872615781,35.6793802306364],[129.29192984747397,35.64497328232498],[129.2625930723334,35.691127112846175],[129.20524857250192,35.72109498893653],[129.19716563796445,35.71610423267792],[129.18650138398618,35.72062701126811],[129.1862351560455,35.72128413026774],[129.18557502033673,35.72176749106716],[129.18549613591637,35.72182524000858],[129.18172423262047,35.72366776548261],[129.1594845651039,35.71585939560544]]]},"properties":{"name":"울산광역시","base_year":"2018","name_eng":"Ulsan","code":"26"}},
{"type":"Feature","geometry":{"type":"Polygon","coordinates":[[[127.17205661412434,36.7308156314868],[127.16469453829767,36.73382187394906],[127.15964389553366,36.73284394495652],[127.15927267693641,36.731381819529865],[127.15752563845741,36.72745609525746],[127.149934131262,36.72597810473323],[127.14882776167012,36.72056096591387],[127.14824581316182,36.71988668357789],[127.14511371018374,36.717520289497585],[127.14052055434458,36.71599102669326],[127.13622838932203,36.713265573272295],[127.1316452576966,36.71027079360205],[127.13086543820233,36.71013703943215],[127.13045742573422,36.71011974252316],[127.1295585604551,36.71022461460591],[127.12776572972369,36.70883204943493],[127.12799025208228,36.707971807266546],[127.13203072026775,36.70615957278106],[127.13330637857032,36.70636176554185],[127.13437853236717,36.706791985306054],[127.1345909343007,36.70665714826061],[127.1353653947492,36.705933969291024],[127.13614355754711,36.70503957789285],[127.16998970319673,36.50903791393799],[127.20048990314122,36.43886411959386],[127.2256431670397,36.42229476791169],[127.24225929562324,36.418615572198014],[127.24434707723913,36.414644213527964],[127.24655545605599,36.412194938170494],[127.24944716837484,36.40830250491478],[127.24949497286757,36.40818994998393],[127.2497081532395,36.40775117141981],[127.24995408112699,36.407402091157074],[127.2505788729233,36.40684275305163],[127.25079570621944,36.40675840144778],[127.25721000067935,36.408002297670166],[127.25809623466341,36.408325300571086],[127.25911630581668,36.40910799218215],[127.25930667175709,36.40942247366355],[127.25956348762782,36.410354352802955],[127.25857608706197,36.41369051293848],[127.25980792291412,36.41551857431665],[127.26082496283463,36.416010207399076],[127.26241315084694,36.416625024872594],[127.26549270461378,36.41717477772154],[127.27568913597469,36.413948720256585],[127.27986166133388,36.41539620020189],[127.28210044248388,36.414999378937715],[127.28212371202417,36.414612029510145],[127.28336488962292,36.41499984219394],[127.28520297275286,36.41527123609057],[127.286818361247,36.41530919224082],[127.29108586912233,36.41615197751927],[127.29531167757607,36.4197703897615],[127.29517858490695,36.42085507085432],[127.29458383335263,36.421379784005765],[127.29424987865711,36.42222404629204],[127.29641799550316,36.42320839608267],[127.30191641899664,36.423088688564924],[127.30350161661569,36.424675803309256],[127.31094891905747,36.424689282880756],[127.32629846246526,36.422094584445226],[127.332727741076,36.426504495124206],[127.33757265669547,36.42834878933278],[127.33981833822361,36.42996987587002],[127.34047235397166,36.430509561685454],[127.34100540381861,36.430969121800636],[127.34085728594515,36.43138239959412],[127.3405937568499,36.43222842433887],[127.3403368192143,36.43572933121948],[127.34489451419151,36.44441451012476],[127.35862136892771,36.45589556774784],[127.35885685993505,36.482564861869996],[127.35905130452997,36.48523261251966],[127.360151255551,36.48852714699282],[127.36333620848772,36.48966470131882],[127.36813736849665,36.48822844724799],[127.3775906942651,36.49561880999667],[127.38033654925505,36.49953929821319],[127.38385508693773,36.500230631154096],[127.38692959621093,36.498638273701346],[127.39612055427725,36.49172147062538],[127.39612424328064,36.491724773399156],[127.3969998233117,36.492347242051515],[127.39981534315724,36.49334983742183],[127.40982635192546,36.49532080788734],[127.28868824133166,36.65889821551076],[127.24571086348729,36.69589150568379],[127.17205661412434,36.7308156314868]]]},"properties":{"name":"세종특별자치시","base_year":"2018","name_eng":"Sejongsi","code":"29"}},
{"type":"Feature","geometry":{"type":"Polygon","coordinates":[[[126.74268438258082,37.03800103572242],[126.90970527878991,36.901601846279355],[127.15918128535657,36.969755132522366],[127.28782886883798,36.893778880057454],[127.55691317501459,37.04126453479714],[127.74475104825576,37.21364588379564],[127.80424700206972,37.57913426578392],[127.55281588523754,37.66152834645853],[127.61714123274649,37.9063618939428],[127.4404527059447,38.10883224571895],[127.18924101509177,38.16132096410013],[127.09512660006018,38.2813835755292],[126.81121875405486,37.999449405180236],[126.67197086166632,37.94822898735819],[126.61568941463811,37.60545588661631],[126.72428476537448,37.59329356807687],[126.72546216994375,37.59187463209949],[126.74432404984321,37.59249537050702],[126.74971348853138,37.58146122337824],[126.76766736670146,37.58823160197767],[126.7870480367187,37.58557952634535],[126.79369544517627,37.581593858784835],[126.79373176900876,37.58303859748184],[126.79344108146184,37.584519606347534],[126.80056961391976,37.587841698644205],[126.80258140129479,37.60503275131527],[126.82005393861031,37.59240352090326],[126.8536285092569,37.573798730277936],[126.85483415399943,37.57403731301362],[126.85576628585079,37.57422147639636],[126.8592940944826,37.57524051373082],[126.8634157387303,37.57686871484771],[126.87060053235994,37.57800846921803],[126.87391525096696,37.57828070055364],[126.87519538456277,37.578274481932084],[126.87626048612833,37.57818523407839],[126.87763159246542,37.579748093752976],[126.87704967618464,37.582206155768176],[126.87674571228428,37.584637259043966],[126.87754227233637,37.5862474828155],[126.8800445137098,37.589066328934166],[126.88760860505191,37.588667020802895],[126.89144413814178,37.58846540695215],[126.89641421579083,37.58873825993837],[126.89808209019456,37.58953879744975],[126.89946874554273,37.58978720910354],[126.89964366139284,37.58981689131172],[126.91227986250577,37.644315359926146],[127.01541538636053,37.70145528488818],[127.02928557936214,37.699291623917055],[127.03241428866143,37.69183903951266],[127.05180416056393,37.68706676024393],[127.081104786212,37.696137458252146],[127.09599596018137,37.689071047239835],[127.09611844460753,37.6877774621718],[127.09642514706991,37.68626418197152],[127.09642311521579,37.68563744250999],[127.09194656409828,37.67919029945468],[127.09194153825348,37.678692517043125],[127.09218959045678,37.67803010709106],[127.09396277354372,37.67561723248836],[127.09644725736909,37.66968910746857],[127.09497929489692,37.66760002828804],[127.09458063292257,37.66617230098405],[127.09468001521745,37.66492127861543],[127.09541063085376,37.663889645011125],[127.09414211889552,37.66329882578308],[127.09120691317406,37.65933455738058],[127.09456997096662,37.644570601051335],[127.09890806415763,37.6440343997279],[127.10386737241393,37.645488524985154],[127.10657637843217,37.64537731006437],[127.10769224242433,37.644966646061604],[127.11619333194815,37.61894778424233],[127.11725242301092,37.61674187098541],[127.11699384417572,37.61645574221738],[127.11687861005065,37.61632493463121],[127.11667194646066,37.61601542343749],[127.11670352005375,37.61571891546779],[127.11679649672595,37.61495467772453],[127.11708589484871,37.61396022509461],[127.11737381774111,37.61224525747025],[127.11728722364873,37.611180500165766],[127.11687784543453,37.60953070092598],[127.1166980642385,37.6088492519548],[127.11809512231281,37.60547242448591],[127.11804701262514,37.60460229935785],[127.17510636703126,37.58026661359749],[127.17668903354051,37.579069342967095],[127.17541541620498,37.5782986306554],[127.17568308779612,37.57489869981796],[127.1778192661048,37.572057709144374],[127.17946467133608,37.566583016291844],[127.18019418193974,37.56458787393822],[127.18099458513007,37.56332274569833],[127.18118573245677,37.563016966364046],[127.1819954215227,37.56099244573283],[127.18165662811967,37.55799830203354],[127.18135146478596,37.55325805003835],[127.18134032705345,37.552964964099075],[127.18142169515666,37.55275732408334],[127.1817038456488,37.55250799696722],[127.18292674706282,37.55023535098581],[127.18279599223567,37.546389839743505],[127.1835391723026,37.54517039564217],[127.18169282748657,37.54644475068548],[127.1793312826048,37.546567422708655],[127.17608601629304,37.54561946598794],[127.16516817925266,37.54463179922794],[127.16316273049847,37.544991011567085],[127.15958338149619,37.54102822522541],[127.15671195219419,37.537577746024915],[127.15356680261092,37.53366519330947],[127.15316377713171,37.52910880532738],[127.14947629588569,37.525020541939135],[127.14779743363644,37.522149473859834],[127.14480065903889,37.51938973751642],[127.14509193623852,37.516834948977035],[127.14532885950595,37.51660715850836],[127.14543404005005,37.516428526021905],[127.14544427426921,37.51633278342842],[127.14543916686941,37.516064743423215],[127.14485430167414,37.515678026358344],[127.14475438392391,37.515645484007294],[127.14460355140275,37.51560624879467],[127.14337411677978,37.51557760389176],[127.14210518768225,37.51466010471781],[127.14023773722384,37.509853523984745],[127.13996581231865,37.50864088423144],[127.14352658920771,37.47393041980018],[127.10434135847622,37.46217434595795],[127.09930610884938,37.456677556565154],[127.09522278426574,37.456394227801894],[127.09377352275705,37.45607736559557],[127.0935403633394,37.45588805575818],[127.08882127609019,37.4497494207769],[127.08843214375766,37.44899484337503],[127.0883268206423,37.448627762005444],[127.08832676626356,37.4486273596552],[127.08816128506392,37.445384984164725],[127.08017160173435,37.44105109513523],[127.07908335237377,37.44129874267924],[127.07601057579953,37.44213893591386],[127.07224980662805,37.44219981098453],[127.07376019422932,37.43778943444671],[127.06961543039613,37.43061169237815],[127.06569800820779,37.42915810264331],[127.06114498966804,37.42998528365496],[127.05345832127932,37.42880858665062],[127.04736923929798,37.43070182165842],[127.0263467828903,37.45810435905699],[127.01072511845564,37.45577244602455],[127.00923267412959,37.45722091076721],[127.00446967233232,37.46407327776778],[127.00273482282347,37.46712461236046],[126.99676862997596,37.46187335308772],[126.90939564129862,37.433860449230096],[126.8717971953724,37.484997434968626],[126.84536055317291,37.47381246669258],[126.82787204396476,37.475989207846276],[126.81957593788384,37.476355425128816],[126.81832133658123,37.475298754601404],[126.81766855189414,37.473238400176406],[126.81465604893813,37.47476019222172],[126.8147297971682,37.47505730580812],[126.8149648707539,37.47586011824494],[126.81522179377346,37.47625106443333],[126.81529553539391,37.47636211884179],[126.8164114187513,37.4775367482477],[126.81721035588889,37.478135181180164],[126.81732392080636,37.47813929505678],[126.81825621908531,37.478163830298335],[126.81936728754931,37.47986309444871],[126.81998493125566,37.48169263561134],[126.82129203057141,37.48617740203364],[126.82256900627564,37.4869840447281],[126.82322519550651,37.48749016192722],[126.82326789207937,37.487907643842945],[126.82304057106516,37.48838063121818],[126.82078537521494,37.490533112486794],[126.82004518406227,37.490788202153105],[126.81457485845853,37.493192934849425],[126.81438948581945,37.49355713013953],[126.81301232084788,37.49640025944332],[126.81963994117521,37.49921047224167],[126.82156436043651,37.50215642273751],[126.82222289407576,37.50768732474905],[126.8241877541951,37.51052493397963],[126.82425573652655,37.514467566321315],[126.82459184667432,37.51804575252933],[126.82552098695295,37.51987605268121],[126.82612672089931,37.524295828085485],[126.82814882043147,37.525832569341],[126.82842768713249,37.526702386396224],[126.82821380068314,37.52902894012556],[126.82211888561298,37.54067728557008],[126.81631233364408,37.54055141028065],[126.8135131329594,37.54063270428766],[126.81305060341333,37.540658140146704],[126.81233421019476,37.540736677855506],[126.80719326779176,37.54371612833133],[126.801849916581,37.54271555626098],[126.80168082941375,37.54261025118702],[126.8002980990951,37.54167707373868],[126.79932937641736,37.540641812130964],[126.79900903647781,37.53935886613526],[126.79945859034379,37.53891167552133],[126.79947901154297,37.537767449392646],[126.79380273656527,37.539994486943954],[126.79301738528633,37.541594047506436],[126.7905648095659,37.54392242205088],[126.78694625376042,37.5459833851785],[126.78548186197771,37.54600436495104],[126.78394714855072,37.546008306949865],[126.77790625487003,37.546668260530296],[126.77149432476008,37.54835628406572],[126.76746505577866,37.551950741283136],[126.76737004111179,37.55313158095761],[126.7663653535449,37.553763486742874],[126.76620435742983,37.55424237567195],[126.76618290317018,37.55355606538204],[126.765278431175,37.55053369345125],[126.76333171263978,37.5462872503289],[126.76232161721708,37.53950283736712],[126.76071368959008,37.53791414870459],[126.76032074964638,37.53570805052545],[126.7543615878896,37.417510129612296],[126.6463741389665,37.25803039405559],[126.74268438258082,37.03800103572242]]]},"properties":{"name":"경기도","base_year":"2018","name_eng":"Gyeonggi-do","code":"31"}},
{"type":"Feature","geometry":{"type":"Polygon","coordinates":[[[128.72544003533113,38.02378200068209],[128.60879610995897,38.15014784911978],[128.40194520051614,38.564731836552255],[128.0801472831959,38.31343118777007],[127.77214141341095,38.33725491416008],[127.09512660006018,38.2813835755292],[127.18924101509177,38.16132096410013],[127.4404527059447,38.10883224571895],[127.61714123274649,37.9063618939428],[127.55281588523754,37.66152834645853],[127.80424700206972,37.57913426578392],[127.74475104825576,37.21364588379564],[127.78952364456934,37.14340827618419],[128.20779919326864,37.248823012730696],[128.27993154119073,37.142462834554756],[128.65209649938106,37.06544002038647],[128.92331552694836,37.092116952666174],[129.1947522208275,37.04062978316099],[129.3633972862427,37.1460009047576],[129.34870523607555,37.2477559916873],[128.8772165178454,37.84095726526081],[128.72544003533113,38.02378200068209]]]},"properties":{"name":"강원도","base_year":"2018","name_eng":"Gangwon-do","code":"32"}},
{"type":"Feature","geometry":{"type":"Polygon","coordinates":[[[127.28782886883798,36.893778880057454],[127.29201455052167,36.69728254989688],[127.28948732918667,36.695409287176155],[127.2852900690544,36.690671453376645],[127.5396181534823,36.4206141620798],[127.49257720278914,36.23795395193175],[127.63820316355083,36.068228972097934],[127.87677397654868,36.02251177410954],[128.01077771425838,36.272054258186905],[127.88260665082318,36.345915495129745],[127.8523628957512,36.5711533140375],[128.0610760334887,36.81715859325146],[128.06568770382324,36.81718076076843],[128.0771610384988,36.81098045079296],[128.07804274948268,36.80949980615386],[128.12461445197113,36.82399477353079],[128.12987849636258,36.82514924915457],[128.42047892150907,36.81151370806567],[128.46278173731054,36.9473843050626],[128.65209649938106,37.06544002038647],[128.27993154119073,37.142462834554756],[128.20779919326864,37.248823012730696],[127.78952364456934,37.14340827618419],[127.74475104825576,37.21364588379564],[127.55691317501459,37.04126453479714],[127.28782886883798,36.893778880057454]]]},"properties":{"name":"충청북도","base_year":"2018","name_eng":"Chungcheongbuk-do","code":"33"}},
{"type":"Feature","geometry":{"type":"Polygon","coordinates":[[[126.69484001970108,37.00043699488053],[126.48905903784625,37.05952497154673],[126.20317435888322,36.90045396181122],[126.15890123691602,36.75554291472877],[126.45527679845634,36.595386616537155],[126.52026998122638,36.152297225558506],[126.74166067123393,36.01220594633797],[127.01709964043452,36.14705967573723],[127.12269403170524,36.063581834655494],[127.34009296616091,36.12897927669339],[127.48772769068873,35.9782641246846],[127.63820316355083,36.068228972097934],[127.49257720278914,36.23795395193175],[127.48996984886762,36.23348207711224],[127.4884694379652,36.23253356254102],[127.48776689735563,36.2326870285943],[127.48729066437154,36.23285597070195],[127.48729053329302,36.232855914560666],[127.48651401091134,36.232532162938966],[127.485299584364,36.23194735830511],[127.48438537640047,36.23104170345631],[127.48354574854773,36.23035684914794],[127.4778571710394,36.22966879007404],[127.4673023315348,36.22234681604438],[127.443694394601,36.19475334581031],[127.38641214675754,36.25067221227742],[127.36035562462394,36.22548676543155],[127.36419690233846,36.21890129371049],[127.35943469240993,36.21392889869175],[127.35481913047255,36.21273395859754],[127.35296769347758,36.21183905719708],[127.34038344177803,36.188891283047056],[127.31564078306211,36.22081537005811],[127.31526122247391,36.221288087561234],[127.31430507614026,36.22211433109322],[127.31236919612918,36.22287103910615],[127.31134591925726,36.22328371665624],[127.30822579346318,36.22500457401028],[127.30747387880952,36.22547005648616],[127.30638978357798,36.226159981320144],[127.29382034729058,36.22311632402174],[127.25877186625883,36.27605058136622],[127.27911807374046,36.34482237262059],[127.27241278369256,36.354123064324625],[127.27109179365875,36.35742263185308],[127.27083576924322,36.35870067350677],[127.27056915793608,36.36085771156497],[127.27072155392881,36.36117672333825],[127.27234979225439,36.36262139508201],[127.27767542908178,36.36529030792085],[127.27743205386145,36.36865517894019],[127.27938195709815,36.37132740868155],[127.2810369295068,36.37486360613347],[127.28071997285602,36.37682002584016],[127.28030476756683,36.378696268648525],[127.27903181205392,36.379542561269105],[127.27885434853184,36.37991026488245],[127.27888126511088,36.38040329380509],[127.27900531828013,36.38205779692914],[127.27858405723444,36.38282081107958],[127.27805747494773,36.38671531337695],[127.27916632969374,36.39145168593883],[127.27885703249937,36.39353067129674],[127.27865392203755,36.39496036813917],[127.27859285029267,36.39539714286965],[127.27848244916493,36.39675968032295],[127.2787784224299,36.39868883741056],[127.28060742180074,36.40304734273543],[127.2810386654451,36.40481654943917],[127.28179412699498,36.40900575620644],[127.28229674521641,36.411989352868616],[127.2821237130969,36.41461203037912],[127.28210044359052,36.41499938053749],[127.27986166259436,36.415396200916284],[127.27568913631951,36.41394872042433],[127.2654927050255,36.41717477846611],[127.26241315197237,36.41662502553232],[127.26082496319691,36.4160102089773],[127.2598079240664,36.41551857403178],[127.25956348892439,36.410354354440294],[127.259306672286,36.4094224734593],[127.2591163062043,36.40910799294165],[127.25809623453739,36.40832530118077],[127.25721000168886,36.408002298424776],[127.2507957072552,36.40675840111961],[127.25057887300103,36.40684275361683],[127.2499540811811,36.407402091265304],[127.24944716854894,36.40830250464028],[127.24655545625195,36.412194938868886],[127.24434707742392,36.414644214311735],[127.24225929606956,36.418615572952426],[127.22564316819845,36.42229476862993],[127.20048990414648,36.43886412112986],[127.20473351422655,36.459290240674974],[127.16998970475373,36.50903791556907],[127.20775132478902,36.57795949574644],[127.15547820489182,36.60670289804954],[127.15485840773401,36.66427465129035],[127.16412364078225,36.67849759082027],[127.14382777231656,36.68899772470013],[127.13614355742943,36.70503957943733],[127.13536539485482,36.70593397008789],[127.13459093586029,36.70665714793508],[127.1343785322965,36.70679198499402],[127.13330637902723,36.70636176533883],[127.13203072025733,36.70615957359077],[127.12799025217086,36.70797180885832],[127.12955856061194,36.71022461428754],[127.130457425834,36.710119744069196],[127.13086543970934,36.71013704006521],[127.1316452592052,36.71027079436011],[127.13622838945251,36.7132655748237],[127.14052055439682,36.71599102839143],[127.14511371042019,36.71752029016278],[127.1482458134465,36.719886685185195],[127.14882776156125,36.72056096557531],[127.15752563860603,36.72745609504025],[127.1592726768584,36.73138182036404],[127.15964389547634,36.73284394556186],[127.1646945386025,36.73382187453518],[127.17121921166684,36.73222565994839],[127.2031223759767,36.726149125443506],[127.2852900690544,36.690671453376645],[127.28948732918667,36.695409287176155],[127.29201455052167,36.69728254989688],[127.28782886883798,36.893778880057454],[127.15918128535657,36.969755132522366],[126.90970527878991,36.901601846279355],[126.69484001970108,37.00043699488053]]]},"properties":{"name":"충청남도","base_year":"2018","name_eng":"Chungcheongnam-do","code":"34"}},
{"type":"Feature","geometry":{"type":"Polygon","coordinates":[[[127.63820316355083,36.068228972097934],[127.48772769068873,35.9782641246846],[127.34009296616091,36.12897927669339],[127.12269403170524,36.063581834655494],[127.01709964043452,36.14705967573723],[126.74166067123393,36.01220594633797],[126.70676187865575,35.79651550328926],[126.4672477224577,35.634431612248704],[126.4502165489897,35.42788436820784],[126.47463491058123,35.4279309554558],[126.47541768567798,35.42927134708853],[127.03472214767118,35.46657185056906],[127.1680463201888,35.332014693609786],[127.57748101215579,35.308901047301546],[127.66228754762435,35.760829742698],[127.88505877411363,35.90960563892586],[127.87677397654868,36.02251177410954],[127.63820316355083,36.068228972097934]]]},"properties":{"name":"전라북도","base_year":"2018","name_eng":"Jeollabuk-do","code":"35"}},
{"type":"Feature","geometry":{"type":"Polygon","coordinates":[[[126.890432055908,34.456143781376724],[126.99514841801003,34.62090721142723],[127.37065153440842,34.480244047151416],[127.5057053520783,34.594977905465676],[127.3960019180526,34.82521137161952],[127.73280677391871,34.73041575092741],[127.75939184929899,34.96677638839174],[127.57748101215579,35.308901047301546],[127.1680463201888,35.332014693609786],[127.03472214767118,35.46657185056906],[126.47541768567798,35.42927134708853],[126.47463491058123,35.4279309554558],[126.4502165489897,35.42788436820784],[126.3080514165331,35.250904857265084],[126.40324609776711,34.904687878823154],[126.25899998081186,34.70068659438709],[126.65710790873182,34.42047520700242],[126.79425036144112,34.54721869257628],[126.890432055908,34.456143781376724]],[[126.80948678873477,35.0522879255687],[126.80357545746858,35.052421102651735],[126.80120485721213,35.058202586130975],[126.79489572383557,35.061122858144074],[126.76921070627263,35.05397138476747],[126.77134636437033,35.07018331327052],[126.76697633903008,35.0754638169374],[126.76480207405204,35.078754649863676],[126.76187235006398,35.09103305413396],[126.73643743359551,35.108227105026884],[126.71910849146991,35.10856656167024],[126.71548859679702,35.11073964361267],[126.71471802833273,35.11054432337148],[126.71273331718595,35.109914430299234],[126.70859762054971,35.109553969812886],[126.70540377721055,35.1130143128655],[126.70268213606083,35.11270639755113],[126.70231616566375,35.112623111099175],[126.7016284211361,35.112324521794335],[126.70040499048218,35.11027879071866],[126.70006342283642,35.109440247164855],[126.69839624053643,35.10798123858731],[126.69597436006985,35.10748618366123],[126.68988305035823,35.11122300685105],[126.67632920267886,35.104886923931836],[126.65709319952957,35.113278265704515],[126.65538515048065,35.116989373595636],[126.65428000302462,35.118187693283],[126.6517234971702,35.120509787671736],[126.6517234188416,35.12465868410391],[126.65312821768893,35.126546981066554],[126.65407388632582,35.13108872040889],[126.65454244603626,35.13350456012278],[126.6546000597693,35.13398877883315],[126.65488626723013,35.1368033662352],[126.65282701269994,35.140913113249944],[126.65331605743687,35.14395995886285],[126.65052654125688,35.14436667927739],[126.6486253956725,35.14400526077273],[126.64790090015934,35.14398385303641],[126.6475640996206,35.14403568833083],[126.64730694163944,35.14422717735176],[126.64497761146252,35.14655554948627],[126.64554520610068,35.146664819953756],[126.64631758455255,35.146799043236285],[126.6491057163504,35.14717518483336],[126.6535568509429,35.15301076741745],[126.65172956332265,35.15553675760464],[126.6546254699257,35.15835278389859],[126.65366265850818,35.161271229404754],[126.65397485721172,35.16419727837391],[126.65413337101673,35.16442800713176],[126.65422288349347,35.16455178077207],[126.65489171870962,35.1651646378221],[126.65707845531799,35.1666159857818],[126.65745209279929,35.16667661414652],[126.65838206586125,35.166825584863865],[126.66288863613461,35.16748047218541],[126.66428419105218,35.16844007281358],[126.67042955192814,35.16951750725046],[126.67211673125263,35.1730897572018],[126.66258134170761,35.18044900324379],[126.65320393318322,35.19251802676467],[126.66811251198632,35.192641942090646],[126.67206101858595,35.19425713745099],[126.67443340892102,35.191180265373994],[126.67597292804531,35.1907181096917],[126.67635428611914,35.190809262156186],[126.67711746773739,35.191046787661165],[126.67726202274135,35.1914974176799],[126.6776299993776,35.19314406953451],[126.67771777620278,35.193939606375125],[126.68712233808344,35.21521282773168],[126.70255613453277,35.20756445185203],[126.71773631733403,35.21241581683423],[126.72021677052498,35.21602232815687],[126.72072177085465,35.218830048067154],[126.71847734633616,35.22179869129162],[126.7232852804685,35.22871888980168],[126.72413111590919,35.230182830254286],[126.7235868980799,35.2306695778943],[126.72417810786028,35.23236460816015],[126.72518563489314,35.23424902291457],[126.72698737390544,35.23651265995648],[126.72790496894962,35.23638277606681],[126.72791660254057,35.23639166896917],[126.72909043272237,35.23730101641904],[126.73041165052672,35.24066146937379],[126.73036369111513,35.2407845935244],[126.73013819902773,35.24179386622839],[126.72990073543481,35.243301516325864],[126.73007548582028,35.24376821976425],[126.73709590211801,35.25187382514381],[126.76028936539896,35.258703976894076],[126.76338400875107,35.25651922386083],[126.76370515163791,35.25336749096983],[126.76344015118066,35.2530433361986],[126.76343464338959,35.25303661050723],[126.76339995624323,35.252994256329444],[126.7631328103852,35.25270022348362],[126.76278829580319,35.25244140239594],[126.76081646052472,35.2474404247929],[126.76062709874776,35.24715021024038],[126.75936473051088,35.245657521868736],[126.75676115414191,35.243643567565776],[126.75522130380621,35.2411333122318],[126.75384981089682,35.23708674513054],[126.75525910775748,35.23436123652334],[126.7555934295113,35.234149252817005],[126.75570809417987,35.234093999550254],[126.7570549200156,35.23373055352593],[126.76030969806189,35.233973122614394],[126.77487566301616,35.23047856242458],[126.79537691481345,35.219778934593755],[126.90546612228923,35.2582423015196],[127.01183208377807,35.12781621330149],[127.00458699353219,35.12176117337705],[126.99868658953888,35.115755589297734],[126.99895227323069,35.11531392382326],[126.99993185426429,35.11405020573512],[126.99779696373108,35.112993882568645],[126.99439897077707,35.111750836252625],[126.99180191024354,35.11114632543032],[126.98920533175013,35.10987742505561],[126.98635174171498,35.10594533198477],[126.9877925874826,35.100495213437625],[126.98872572368727,35.09702929436283],[126.98882687620637,35.096703122361106],[126.98895069277263,35.09498758880731],[126.98765180055914,35.09395270807443],[126.979615054311,35.091873743977025],[126.97216858141635,35.09050097567046],[126.96651299961933,35.089385590317065],[126.9628064232547,35.08720301942665],[126.9624303035615,35.08690376212321],[126.96064837610454,35.08511269557578],[126.95860100951987,35.082588022413994],[126.95188207934133,35.07315661139436],[126.93599500806302,35.0744816941324],[126.926093069728,35.082392196021246],[126.92500736438505,35.0856685439816],[126.9246693535262,35.08799582568915],[126.92057624750905,35.09168622265988],[126.91669987375653,35.09124697808652],[126.91343017787155,35.089471360687575],[126.91071144768483,35.08743128640497],[126.90580723070956,35.08204820406918],[126.8998929766301,35.080714858180784],[126.89762256013472,35.08123404282287],[126.8970675856427,35.08112793928948],[126.89510537376073,35.08071413995036],[126.89464156015512,35.080338115229935],[126.89397257663242,35.07978050761777],[126.89198856848735,35.07795308538841],[126.88540282376766,35.081590269033164],[126.87720957569437,35.077215746141796],[126.87633318019432,35.07603686713755],[126.8716767017694,35.07433782726289],[126.86536703177809,35.07534622632004],[126.86113104628268,35.07894193612039],[126.85560924986574,35.078359530915726],[126.84843556548111,35.072222253876504],[126.84818408373796,35.071947860177524],[126.84576250106213,35.06830917560061],[126.84587044513212,35.06793397581961],[126.84587031570298,35.06764370953328],[126.84586780036021,35.067073735563746],[126.84562022576428,35.066827795310694],[126.84408498157323,35.06542629720994],[126.84397733492854,35.06538123307642],[126.84391226372833,35.06536622110319],[126.84373724342977,35.06534261253131],[126.83795408259506,35.06586999967683],[126.83683231610061,35.065668353098886],[126.83596509735321,35.063856829752055],[126.82720826849729,35.06231549155359],[126.82595704665934,35.06197115970142],[126.82234898651913,35.06026061587692],[126.82199471168214,35.060043620632534],[126.82185927324343,35.05994821772043],[126.82079999795954,35.058571347382696],[126.82052979203061,35.057837177401694],[126.81880921660645,35.05324607561408],[126.81808471006663,35.05268910244103],[126.81524678459893,35.053321782844996],[126.81441719904895,35.05337346375732],[126.81135162168992,35.05307688227439],[126.80948678873477,35.0522879255687]]]},"properties":{"name":"전라남도","base_year":"2018","name_eng":"Jeollanam-do","code":"36"}},
{"type":"Feature","geometry":{"type":"Polygon","coordinates":[[[129.41918202696016,36.89238162230832],[129.3633972862427,37.1460009047576],[129.1947522208275,37.04062978316099],[128.92331552694836,37.092116952666174],[128.65209649938106,37.06544002038647],[128.46278173731054,36.9473843050626],[128.42047892150907,36.81151370806567],[128.12987849636258,36.82514924915457],[128.12461445197113,36.82399477353079],[128.07804274948268,36.80949980615386],[128.0771610384988,36.81098045079296],[128.06568770382324,36.81718076076843],[128.0610760334887,36.81715859325146],[127.8523628957512,36.5711533140375],[127.88260665082318,36.345915495129745],[128.01077771425838,36.272054258186905],[127.87677397654868,36.02251177410954],[127.88505877411363,35.90960563892586],[128.1245517447349,35.81943926497273],[128.20123098850607,35.643721920016716],[128.37174762478122,35.61088094214918],[128.38346927250018,35.760086848407774],[128.6186696544509,36.006411645288516],[128.75979529418998,35.86607494532021],[128.52985121643272,35.6830153339775],[128.75813554313635,35.56749337131515],[128.91505369893332,35.640618745267666],[128.98264227144054,35.60870517222171],[128.99709610002782,35.61500444399217],[129.0001410274247,35.61722168203141],[129.0024758956013,35.619447581816566],[129.00273979182623,35.62025845580109],[129.02661073086753,35.63639548314699],[129.03548622528453,35.63202091528539],[129.0433434055537,35.64096747183975],[129.04607888903908,35.649127381939095],[129.04690108178696,35.65051760735464],[129.04850061534415,35.65018334823073],[129.0505840418695,35.64948010588721],[129.052046446122,35.64905999520853],[129.054803695522,35.648495442927675],[129.0576820505944,35.648256245501045],[129.06930226671307,35.64541351326798],[129.07554602338826,35.640355890157494],[129.080854799271,35.643253135570546],[129.08103214453973,35.64391954914662],[129.0813108039547,35.644967599629254],[129.08136279440302,35.645163675723445],[129.0797643817597,35.64911313189482],[129.06789323114216,35.658798494835025],[129.06903957146068,35.66905221371175],[129.06715348950448,35.6713464686386],[129.06809482617888,35.67319064126253],[129.06900048173395,35.67375656373536],[129.07118102363322,35.675514645919215],[129.0730282761602,35.677379383105645],[129.07070530853596,35.67863566027748],[129.0699980819627,35.67998326224333],[129.06980194464293,35.681436536800064],[129.06987683248323,35.68237223676592],[129.07188635962444,35.68435373120702],[129.07269869382685,35.685282511086264],[129.07394635509598,35.68678780594557],[129.07411517471647,35.687042702578054],[129.07410833619832,35.687165306582955],[129.074071422651,35.68731250837121],[129.07397726611788,35.687568687685626],[129.073973640969,35.68777585849853],[129.07434982199632,35.68844054360487],[129.0772210756866,35.692935621615426],[129.08046488393484,35.69590486776328],[129.0830679844557,35.697643590846454],[129.13416347594838,35.712109147111086],[129.1365694997442,35.715482378027694],[129.13792976824791,35.717081564052066],[129.13949625770806,35.71822920148791],[129.139514936552,35.71824295118795],[129.1394988895822,35.71826281078677],[129.13753468308556,35.720699329828626],[129.13839905611715,35.72178835352609],[129.14098842132915,35.72385153162175],[129.14130938314057,35.72410332517361],[129.14721446211243,35.724665063016246],[129.1487247260572,35.72347616860591],[129.1498367332546,35.72331312958544],[129.15286884988524,35.721963083834986],[129.15483307482762,35.72094225830489],[129.15627609926779,35.71976375710141],[129.1603149592459,35.714810106181616],[129.17843179025294,35.71721258467462],[129.1817242322785,35.72366776488803],[129.18549613579785,35.721825239308735],[129.18557502027807,35.72176749033832],[129.18623515583295,35.721284131406584],[129.1865013839994,35.720627011594715],[129.1971656376797,35.716104233917285],[129.2052485722722,35.72109498925777],[129.47619521426864,35.69276853112101],[129.51848751075443,35.92062303541466],[129.4011919975682,36.03898945397004],[129.4115911455146,36.07245057324274],[129.37255634272276,36.207016416787745],[129.47499996569437,36.697902946158685],[129.41918202696016,36.89238162230832]]]},"properties":{"name":"경상북도","base_year":"2018","name_eng":"Gyeongsangbuk-do","code":"37"}},
{"type":"Feature","geometry":{"type":"Polygon","coordinates":[[[128.46107770385126,35.08964614618116],[128.59077011809654,35.15805604198806],[128.81151488477144,35.07758486319552],[128.82869933734955,35.08996962948658],[128.82068705535576,35.097022951296395],[128.83958597765226,35.11513143879709],[128.83928036555477,35.115074958035585],[128.82670048532245,35.12859002547415],[128.8249484481423,35.13064375477036],[128.79709210732554,35.158997041432514],[128.79852130703128,35.15810280357691],[129.20116989153746,35.38778167785071],[129.20203314692264,35.39116040841221],[129.20281550046448,35.39261065288728],[129.20780565699994,35.39578473418851],[129.2079025237058,35.397082742843644],[129.20891850436587,35.39943274219351],[129.2138083614391,35.402081435165755],[129.21888378569636,35.40697148231974],[129.19051313751007,35.43508854373646],[129.16804993551682,35.43179254299365],[129.15847121219673,35.436498114482944],[129.15509161751743,35.438874179136974],[129.15400393142886,35.439723918287655],[129.15344840637573,35.440166965462716],[129.1527695594278,35.44082648322092],[129.15245084620628,35.44128725705244],[129.1520444217704,35.44186558357079],[129.1431522633837,35.44565411138226],[129.1067232367914,35.495135853664266],[129.05263036804905,35.514472461374524],[129.0519149205966,35.51705936330684],[129.0511586168915,35.51909210922247],[129.0510564075224,35.51984009613469],[129.05218977004574,35.521339443184765],[129.052112968026,35.52440149962002],[129.05656928386915,35.52710992776523],[129.05582321235974,35.53226752848065],[129.03245577414876,35.525679974675946],[129.0300483363311,35.526242472169365],[129.02734328587792,35.52711438927874],[129.0241525987757,35.52579011907305],[129.0203338566465,35.52412914875772],[129.01295538314423,35.52314076005022],[129.00903249787152,35.523991807960435],[129.00969338944589,35.528060994475275],[129.00955042579767,35.52831970762169],[129.00759705883075,35.529108879772096],[129.0073806784381,35.529125093416944],[129.00427280998755,35.52917913971797],[128.995392385826,35.5278243940598],[128.9945859454326,35.528130796215926],[128.9946634448345,35.53043136233124],[128.99551012835772,35.53133763289593],[128.99607861677512,35.53202279118445],[128.99620712782598,35.53225769654881],[128.99592133262092,35.53431208251256],[128.99592161465787,35.53524774854265],[128.996431368431,35.536195963046325],[128.9980218987475,35.53764612299093],[128.99883355263358,35.538542092576506],[128.9989611786244,35.540001490450386],[128.99834893234225,35.54172070085062],[129.018895435211,35.58381993370987],[129.02301841814892,35.61343942962393],[129.00273979182623,35.62025845580109],[129.0024758956013,35.619447581816566],[129.0001410274247,35.61722168203141],[128.99709610002782,35.61500444399217],[128.98264227144054,35.60870517222171],[128.91505369893332,35.640618745267666],[128.75813554313635,35.56749337131515],[128.52985121643272,35.6830153339775],[128.37174762478122,35.61088094214918],[128.20123098850607,35.643721920016716],[128.1245517447349,35.81943926497273],[127.88505877411363,35.90960563892586],[127.66228754762435,35.760829742698],[127.57748101215579,35.308901047301546],[127.75939184929899,34.96677638839174],[128.02176965558004,35.030669936600646],[128.06508305577435,34.92626261293057],[128.43132873140283,34.95695969713621],[128.46107770385126,35.08964614618116]]]},"properties":{"name":"경상남도","base_year":"2018","name_eng":"Gyeongsangnam-do","code":"38"}},
{"type":"Feature","geometry":{"type":"Polygon","coordinates":[[[126.90175150744133,33.51526589973648],[126.72987892093751,33.560745062672254],[126.27894394450749,33.44227815136769],[126.18226053591597,33.25974872499059],[126.47287245772691,33.22296325007048],[126.83006446088352,33.30658227754111],[126.90175150744133,33.51526589973648]]]},"properties":{"name":"제주특별자치도","base_year":"2018","name_eng":"Jeju-do","code":"39"}}
]}